ONEWEB-0449             
1 51642U 22012W   22137.50001157  .00000014  00000+0  00000+0 0  9992
2 51642  87.8467 332.9343 0013357 284.1216 242.0815 13.45957560 15216
ONEWEB-0451             
1 51643U 22012X   22137.25001157 -.00024098  00000+0 -22894-2 0  9993
2 51643  87.1827 327.6424 0003170  89.4634  25.0386 14.93750155 15647
ONEWEB-0452             
1 51644U 22012Y   22137.50001157  .00027874  00000+0  26234-2 0  9997
2 51644  87.1820 327.5539 0003975 103.1955 234.3121 14.93735389 15699
ONEWEB-0455             
1 51645U 22012Z   22136.80348064  .00000276  00000+0  11643-3 0  9997
2 51645  87.5280 332.1620 0015113 297.6416  62.3239 14.22257772 13925
ONEWEB-0456             
1 51646U 22012AA  22137.50001157  .00000014  00000+0  00000+0 0  9996
2 51646  87.8465 332.9576 0013676 293.6539 173.3240 13.47311064 15249
ONEWEB-0457             
1 51647U 22012AB  22137.50001157  .00000014  00000+0  00000+0 0  9997
2 51647  87.8185 332.8709 0014074 300.7935 182.2096 13.52752076 15234
ONEWEB-0458             
1 51648U 22012AC  22136.91667824  .00046910  00000+0  78780-1 0  9998
2 51648  87.8349 333.0696 0013413 279.4454 183.2226 13.45458567 15134
ONEWEB-0461             
1 51649U 22012AD  22137.50001157  .00031321  00000+0  29468-2 0  9996
2 51649  87.2432 328.1538 0003362  72.9400  56.7986 14.93735119 15661
ONEWEB-0463             
1 51650U 22012AE  22137.25001157 -.00024849  00000+0 -23611-2 0  9993
2 51650  87.1833 327.6482 0004152 116.3119  30.6164 14.93744396 15641
ONEWEB-0464             
1 51651U 22012AF  22137.50001157  .00000014  00000+0  00000+0 0  9992
2 51651  87.8503 332.9437 0011986 289.9745 268.1066 13.45632371 15225
ONEWEB-0468             
1 51652U 22012AG  22137.50001157  .00000014  00000+0  00000+0 0  9993
2 51652  87.8511 332.9338 0013542 291.7114 188.9593 13.43383083 15197
ONEWEB-0473             
1 51653U 22012AH  22137.50001157  .00000014  00000+0  00000+0 0  9994
2 51653  87.8477 332.9265 0011063 287.9583 324.5884 13.44641091 15212
ONEWEB-0474             
1 51654U 22012AJ  22137.50001157  .00000014  00000+0  00000+0 0  9995
2 51654  87.8477 332.9410 0015207 299.8985 148.8039 13.43663865 15195
ONEWEB-0475             
1 51655U 22012AK  22137.50001157  .00029620  00000+0  27882-2 0  9990
2 51655  87.1885 327.6196 0003508 107.0707 193.9513 14.93721608 15674
